ONEWEB-0403             
1 50483U 21132Q   25006.60979391  .00000059  00000+0  11601-3 0  9991
2 50483  87.9097  80.2167 0001911  99.8036 260.3311 13.18687423152190
ONEWEB-0404             
1 50484U 21132R   25006.34968940 -.00000545  00000+0 -15742-2 0  9992
2 50484  87.8911 126.0650 0001831  94.3121 265.8216 13.11415125146645
ONEWEB-0405             
1 50485U 21132S   25006.47384829  .00000103  00000+0  22743-3 0  9993
2 50485  87.9096  80.2337 0001565  95.6909 264.4401 13.18687680152570
ONEWEB-0406             
1 50486U 21132T   25006.61454144  .00000071  00000+0  14767-3 0  9999
2 50486  87.9101  80.2219 0002499 100.4428 259.6986 13.18687580152220
ONEWEB-0407             
1 50487U 21132U   25006.68409267  .00000044  00000+0  79674-4 0  9992
2 50487  87.9094  80.2002 0001665  97.6655 262.4667 13.18687578153467
ONEWEB-0409             
1 50488U 21132V   25006.34800292 -.00000408  00000+0 -11867-2 0  9993
2 50488  87.8905 126.0446 0001906 102.9556 257.1785 13.11418599146537
ONEWEB-0412             
1 50489U 21132W   25006.59714755  .00000065  00000+0  13164-3 0  9999
2 50489  87.9100  80.2271 0001401  97.6583 262.4708 13.18687206152253
ONEWEB-0413             
1 50490U 21132X   25006.60188782  .00000084  00000+0  18003-3 0  9996
2 50490  87.9099  80.2381 0001412 101.6685 258.4605 13.18687087152196
